CTC2_L_00097016-03
1 54922U 22991TJ  26070.40842593  .00000000  00000+0  00000-0 0  9994
2 54922  45.0000 180.0000 0000000   0.0000   0.0000 14.60983543    16
CTC2_L_00097016-04
1 54923U 22038YK  26070.40842593  .00000000  00000+0  00000-0 0  9997
2 54923  45.0000 180.0000 0000000   0.0000  90.0000 14.60983543    16
CTC2_L_00097017-01
1 54924U 26765OI  26070.40842593  .00000000  00000+0  00000-0 0  9999
2 54924  45.0000 192.0000 0000000   0.0000 192.0000 14.60983543    13
CTC2_L_00097017-02
1 54925U 22546YF  26070.40842593  .00000000  00000+0  00000-0 0  9993
2 54925  45.0000 192.0000 0000000   0.0000 282.0000 14.60983543    14
CTC2_L_00097017-03
1 54926U 24150CN  26070.40842593  .00000000  00000+0  00000-0 0  9997
2 54926  45.0000 192.0000 0000000   0.0000  12.0000 14.60983543    16
CTC2_L_00097017-04
1 54927U 22873GW  26070.40842593  .00000000  00000+0  00000-0 0  9998
2 54927  45.0000 192.0000 0000000   0.0000 102.0000 14.60983543    17
CTC2_L_00097018-01
1 54928U 22724IR  26070.40842593  .00000000  00000+0  00000-0 0  9994
2 54928  45.0000 204.0000 0000000   0.0000 204.0000 14.60983543    15
CTC2_L_00097018-02
1 54929U 23182NU  26070.40842593  .00000000  00000+0  00000-0 0  9994
2 54929  45.0000 204.0000 0000000   0.0000 294.0000 14.60983543    15
CTC2_L_00097018-03
1 54930U 24691LH  26070.40842593  .00000000  00000+0  00000-0 0  9992
2 54930  45.0000 204.0000 0000000   0.0000  24.0000 14.60983543    18
CTC2_L_00097018-04
1 54931U 25063XE  26070.40842593  .00000000  00000+0  00000-0 0  9997
2 54931  45.0000 204.0000 0000000   0.0000 114.0000 14.60983543    19
CTC2_L_00097019-01
1 54932U 25994HP  26070.40842593  .00000000  00000+0  00000-0 0  9991
2 54932  45.0000 216.0000 0000000   0.0000 216.0000 14.60983543    16
CTC2_L_00097019-02
1 54933U 23533FE  26070.40842593  .00000000  00000+0  00000-0 0  9999
2 54933  45.0000 216.0000 0000000   0.0000 306.0000 14.60983543    17
CTC2_L_00097019-03
1 54934U 25369EL  26070.40842593  .00000000  00000+0  00000-0 0  9999
2 54934  45.0000 216.0000 0000000   0.0000  36.0000 14.60983543    18
CTC2_L_00097019-04
1 54935U 22029ET  26070.40842593  .00000000  00000+0  00000-0 0  9990
2 54935  45.0000 216.0000 0000000   0.0000 126.0000 14.60983543    19
CTC2_L_00097020-01
1 54936U 24941AI  26070.40842593  .00000000  00000+0  00000-0 0  9996
2 54936  45.0000 228.0000 0000000   0.0000 228.0000 14.60983543    16
CTC2_L_00097020-02
1 54937U 22499LC  26070.40842593  .00000000  00000+0  00000-0 0  9993
2 54937  45.0000 228.0000 0000000   0.0000 318.0000 14.60983543    17
CTC2_L_00097020-03
1 54938U 22082NM  26070.40842593  .00000000  00000+0  00000-0 0  9992
2 54938  45.0000 228.0000 0000000   0.0000  48.0000 14.60983543    18
CTC2_L_00097020-04
1 54939U 22608ZG  26070.40842593  .00000000  00000+0  00000-0 0  9997
2 54939  45.0000 228.0000 0000000   0.0000 138.0000 14.60983543    19
CTC2_L_00097021-01
1 54940U 24171AP  26070.40842593  .00000000  00000+0  00000-0 0  9996
2 54940  45.0000 240.0000 0000000   0.0000 240.0000 14.60983543    19
CTC2_L_00097021-02
1 54941U 23780YZ  26070.40842593  .00000000  00000+0  00000-0 0  9992
2 54941  45.0000 240.0000 0000000   0.0000 330.0000 14.60983543    10
CTC2_L_00097021-03
1 54942U 22244FD  26070.40842593  .00000000  00000+0  00000-0 0  9997
2 54942  45.0000 240.0000 0000000   0.0000  60.0000 14.60983543    11
CTC2_L_00097021-04
1 54943U 24102T   26070.40842593  .00000000  00000+0  00000-0 0  9993
2 54943  45.0000 240.0000 0000000   0.0000 150.0000 14.60983543    12
CTC2_L_00097022-01
1 54944U 23132PH  26070.40842593  .00000000  00000+0  00000-0 0  9996
2 54944  45.0000 252.0000 0000000   0.0000 252.0000 14.60983543    19
CTC2_L_00097022-02
1 54945U 26852PE  26070.40842593  .00000000  00000+0  00000-0 0  9999
2 54945  45.0000 252.0000 0000000   0.0000 342.0000 14.60983543    10
CTC2_L_00097022-03
1 54946U 23546AP  26070.40842593  .00000000  00000+0  00000-0 0  9997
2 54946  45.0000 252.0000 0000000   0.0000  72.0000 14.60983543    11
CTC2_L_00097022-04
1 54947U 22131IM  26070.40842593  .00000000  00000+0  00000-0 0  9997
2 54947  45.0000 252.0000 0000000   0.0000 162.0000 14.60983543    12
CTC2_L_00097023-01
1 54948U 22409OS  26070.40842593  .00000000  00000+0  00000-0 0  9996
2 54948  45.0000 264.0000 0000000   0.0000 264.0000 14.60983543    19
CTC2_L_00097023-02
1 54949U 22639LJ  26070.40842593  .00000000  00000+0  00000-0 0  9992
2 54949  45.0000 264.0000 0000000   0.0000 354.0000 14.60983543    10
CTC2_L_00097023-03
1 54950U 25262OR  26070.40842593  .00000000  00000+0  00000-0 0  9999
2 54950  45.0000 264.0000 0000000   0.0000  84.0000 14.60983543    12
CTC2_L_00097023-04
1 54951U 25305QR  26070.40842593  .00000000  00000+0  00000-0 0  9998
2 54951  45.0000 264.0000 0000000   0.0000 174.0000 14.60983543    13
CTC2_L_00097024-01
1 54952U 22191FS  26070.40842593  .00000000  00000+0  00000-0 0  9999
2 54952  45.0000 276.0000 0000000   0.0000 276.0000 14.60983543    10
CTC2_L_00097024-02
1 54953U 23242NO  26070.40842593  .00000000  00000+0  00000-0 0  9998
2 54953  45.0000 276.0000 0000000   0.0000   6.0000 14.60983543    12
CTC2_L_00097024-03
1 54954U 23740IX  26070.40842593  .00000000  00000+0  00000-0 0  9992
2 54954  45.0000 276.0000 0000000   0.0000  96.0000 14.60983543    12
CTC2_L_00097024-04
1 54955U 24989QX  26070.40842593  .00000000  00000+0  00000-0 0  9999
2 54955  45.0000 276.0000 0000000   0.0000 186.0000 14.60983543    13
CTC2_L_00097025-01
1 54956U 23638VH  26070.40842593  .00000000  00000+0  00000-0 0  9990
2 54956  45.0000 288.0000 0000000   0.0000 288.0000 14.60983543    10
CTC2_L_00097025-02
1 54957U 25500LX  26070.40842593  .00000000  00000+0  00000-0 0  9991
2 54957  45.0000 288.0000 0000000   0.0000  18.0000 14.60983543    12
CTC2_L_00097025-03
1 54958U 22724BI  26070.40842593  .00000000  00000+0  00000-0 0  9997
2 54958  45.0000 288.0000 0000000   0.0000 108.0000 14.60983543    13
CTC2_L_00097025-04
1 54959U 23692YJ  26070.40842593  .00000000  00000+0  00000-0 0  9993
2 54959  45.0000 288.0000 0000000   0.0000 198.0000 14.60983543    13
CTC2_L_00097026-01
1 54960U 26478MC  26070.40842593  .00000000  00000+0  00000-0 0  9990
2 54960  45.0000 300.0000 0000000   0.0000 300.0000 14.60983543    15
CTC2_L_00097026-02
1 54961U 25765UJ  26070.40842593  .00000000  00000+0  00000-0 0  9999
2 54961  45.0000 300.0000 0000000   0.0000  30.0000 14.60983543    16
CTC2_L_00097026-03
1 54962U 22748XY  26070.40842593  .00000000  00000+0  00000-0 0  9998
2 54962  45.0000 300.0000 0000000   0.0000 120.0000 14.60983543    17
CTC2_L_00097026-04
1 54963U 24246IV  26070.40842593  .00000000  00000+0  00000-0 0  9994
2 54963  45.0000 300.0000 0000000   0.0000 210.0000 14.60983543    18
CTC2_L_00097027-01
1 54964U 23344K   26070.40842593  .00000000  00000+0  00000-0 0  9993
2 54964  45.0000 312.0000 0000000   0.0000 312.0000 14.60983543    15
CTC2_L_00097027-02
1 54965U 23286IT  26070.40842593  .00000000  00000+0  00000-0 0  9999
2 54965  45.0000 312.0000 0000000   0.0000  42.0000 14.60983543    16
CTC2_L_00097027-03
1 54966U 22516VI  26070.40842593  .00000000  00000+0  00000-0 0  9995
2 54966  45.0000 312.0000 0000000   0.0000 132.0000 14.60983543    17
CTC2_L_00097027-04
1 54967U 24652U   26070.40842593  .00000000  00000+0  00000-0 0  9999
2 54967  45.0000 312.0000 0000000   0.0000 222.0000 14.60983543    18
CTC2_L_00097028-01
1 54968U 26578EI  26070.40842593  .00000000  00000+0  00000-0 0  9999
2 54968  45.0000 324.0000 0000000   0.0000 324.0000 14.60983543    15
CTC2_L_00097028-02
1 54969U 23087FN  26070.40842593  .00000000  00000+0  00000-0 0  9992
2 54969  45.0000 324.0000 0000000   0.0000  54.0000 14.60983543    16
CTC2_L_00097028-03
1 54970U 26008OZ  26070.40842593  .00000000  00000+0  00000-0 0  9990
2 54970  45.0000 324.0000 0000000   0.0000 144.0000 14.60983543    18
CTC2_L_00097028-04
1 54971U 26492EH  26070.40842593  .00000000  00000+0  00000-0 0  9998
2 54971  45.0000 324.0000 0000000   0.0000 234.0000 14.60983543    19
CTC2_L_00097029-01
1 54972U 26760DF  26070.40842593  .00000000  00000+0  00000-0 0  9997
2 54972  45.0000 336.0000 0000000   0.0000 336.0000 14.60983543    16
CTC2_L_00097029-02
1 54973U 22811WT  26070.40842593  .00000000  00000+0  00000-0 0  9991
2 54973  45.0000 336.0000 0000000   0.0000  66.0000 14.60983543    17
CTC2_L_00097029-03
1 54974U 26009BO  26070.40842593  .00000000  00000+0  00000-0 0  9995
2 54974  45.0000 336.0000 0000000   0.0000 156.0000 14.60983543    18
CTC2_L_00097029-04
1 54975U 22201KO  26070.40842593  .00000000  00000+0  00000-0 0  9996
2 54975  45.0000 336.0000 0000000   0.0000 246.0000 14.60983543    19
CTC2_L_00097030-01
1 54976U 25778UM  26070.40842593  .00000000  00000+0  00000-0 0  9999
2 54976  45.0000 348.0000 0000000   0.0000 348.0000 14.60983543    16
CTC2_L_00097030-02
1 54977U 23853HF  26070.40842593  .00000000  00000+0  00000-0 0  9992
2 54977  45.0000 348.0000 0000000   0.0000  78.0000 14.60983543    17
CTC2_L_00097030-03
1 54978U 22428BJ  26070.40842593  .00000000  00000+0  00000-0 0  9990
2 54978  45.0000 348.0000 0000000   0.0000 168.0000 14.60983543    18
CTC2_L_00097030-04
1 54979U 22074ZP  26070.40842593  .00000000  00000+0  00000-0 0  9998
2 54979  45.0000 348.0000 0000000   0.0000 258.0000 14.60983543    19
